     2.100          NAVIGATION                              RINEX VERSION / TYPE
fic2rin                                 10/04/2010 00:24:42 PGM / RUN BY / DATE
                                                            END OF HEADER
11 10 10  3 12  0  0.0 -.939220190048D-04 -.272848410532D-11  .000000000000D+00
     .100000000000D+03  .346875000000D+02  .607882463602D-08 -.305119817159D+01
     .177323818207D-05  .112658144208D-01  .933744013309D-05  .515377383804D+04
     .432000000000D+05  .391155481339D-07  .303024544694D+01 -.171363353729D-06
     .888643560028D+00  .158593750000D+03  .849483873373D+00 -.862178770349D-08
     .396802242692D-09  .100000000000D+01  .160400000000D+04  .000000000000D+00
     .340000000000D+01  .000000000000D+00 -.116415321827D-07  .100000000000D+03
     .360060000000D+05  .400000000000D+01
12 10 10  3 12  0  0.0 -.670426525176D-04  .363797880709D-11  .000000000000D+00
     .210000000000D+02 -.734062500000D+02  .454947521819D-08 -.294554657900D+01
    -.387802720070D-05  .332536152564D-02  .508688390255D-05  .515359574127D+04
     .432000000000D+05 -.102445483208D-06  .118896674837D+01  .409781932831D-07
     .971982240379D+00  .285375000000D+03 -.321296352883D+00 -.816748306560D-08
    -.228938107620D-09  .100000000000D+01  .160400000000D+04  .000000000000D+00
     .240000000000D+01  .000000000000D+00 -.116415321827D-07  .210000000000D+02
     .360060000000D+05  .400000000000D+01
13 10 10  3 12  0  0.0  .295883044600D-03 -.102318153949D-11  .000000000000D+00
     .300000000000D+02  .359687500000D+02  .365979530231D-08 -.501675443813D+00
     .164471566677D-05  .431738910265D-02  .115949660540D-04  .515370344734D+04
     .432000000000D+05 -.614672899246D-07 -.843503821217D+00  .204890966415D-07
     .991866897318D+00  .176656250000D+03  .181049214935D+01 -.767067665733D-08
    -.210723063176D-10  .100000000000D+01  .160400000000D+04  .000000000000D+00
     .240000000000D+01  .000000000000D+00 -.107102096081D-07  .300000000000D+02
     .360060000000D+05  .400000000000D+01
14 10 10  3 12  0  0.0  .945013016462D-04  .363797880709D-11  .000000000000D+00
     .720000000000D+02  .567500000000D+02  .380301555372D-08 -.549268098330D+00
     .301375985146D-05  .568541698158D-02  .113435089588D-04  .515358498955D+04
     .432000000000D+05 -.111758708954D-07 -.866136757021D+00  .856816768646D-07
     .985031614475D+00  .177250000000D+03 -.211802466089D+01 -.777318092704D-08
    -.432160858377D-10  .100000000000D+01  .160400000000D+04  .000000000000D+00
     .240000000000D+01  .000000000000D+00 -.884756445885D-08  .720000000000D+02
     .360060000000D+05  .400000000000D+01
15 10 10  3 12  0  0.0 -.200838781893D-03  .500222085975D-11  .000000000000D+00
     .530000000000D+02  .317500000000D+02  .453661753976D-08 -.689527544539D+00
     .153295695782D-05  .278945500031D-02  .104662030935D-04  .515382668114D+04
     .432000000000D+05  .335276126862D-07 -.934318099265D+00 -.800937414169D-07
     .952425873961D+00  .170906250000D+03 -.211389011647D+00 -.806890753096D-08
    -.121790787361D-09  .100000000000D+01  .160400000000D+04  .000000000000D+00
     .240000000000D+01  .000000000000D+00 -.977888703346D-08  .530000000000D+02
     .360060000000D+05  .400000000000D+01
16 10 10  3 12  0  0.0 -.114011112601D-03 -.341060513165D-11  .000000000000D+00
     .290000000000D+02 -.894687500000D+02  .463090718159D-08  .101203353318D+01
    -.452622771263D-05  .583111529704D-02  .443495810032D-05  .515366469574D+04
     .432000000000D+05  .949949026108D-07  .120655283477D+01  .707805156708D-07
     .973122399231D+00  .295656250000D+03 -.158615548323D+00 -.834999066777D-08
    -.354657630057D-09  .100000000000D+01  .160400000000D+04  .000000000000D+00
     .240000000000D+01  .000000000000D+00 -.102445483208D-07  .290000000000D+02
     .360060000000D+05  .400000000000D+01
17 10 10  3 12  0  0.0  .172951258719D-03  .125055521494D-11  .000000000000D+00
     .360000000000D+02 -.554062500000D+02  .444589947527D-08 -.180430610516D-01
    -.291690230370D-05  .560804444831D-02  .110249966383D-04  .515367021751D+04
     .432000000000D+05  .577419996262D-07  .224992542915D+01  .651925802231D-07
     .960591233143D+00  .167968750000D+03 -.251121511483D+01 -.805569269479D-08
    -.939324840936D-10  .100000000000D+01  .160400000000D+04  .000000000000D+00
     .240000000000D+01  .000000000000D+00 -.102445483208D-07  .360000000000D+02
     .360060000000D+05  .400000000000D+01
20 10 10  3 12  0  0.0  .505605712533D-04 -.341060513165D-12  .000000000000D+00
     .103000000000D+03 -.113125000000D+02  .533486507569D-08  .171307612139D+01
    -.620260834694D-06  .423914997373D-02  .580586493015D-05  .515381190109D+04
     .432000000000D+05 -.111758708954D-07 -.199826193021D+01 -.113621354103D-06
     .935506575375D+00  .253000000000D+03  .127364334484D+01 -.860500128999D-08
    -.259653672761D-09  .100000000000D+01  .160400000000D+04  .000000000000D+00
     .240000000000D+01  .000000000000D+00 -.791624188423D-08  .103000000000D+03
     .360060000000D+05  .400000000000D+01
21 10 10  3 12  0  0.0 -.925040803850D-04 -.272848410532D-11  .000000000000D+00
     .300000000000D+02  .418437500000D+02  .526271921338D-08  .250538729247D+01
     .192411243916D-05  .168670787243D-01  .777654349804D-05  .515362492561D+04
     .432000000000D+05 -.949949026108D-07 -.300031184479D+01 -.260770320892D-06
     .932641064107D+00  .213562500000D+03 -.244136711391D+01 -.824355766298D-08
     .331799535068D-09  .100000000000D+01  .160400000000D+04  .000000000000D+00
     .240000000000D+01  .000000000000D+00 -.121071934700D-07  .300000000000D+02
     .360060000000D+05  .400000000000D+01
22 10 10  3 12  0  0.0  .161721371114D-03 -.682121026330D-12  .000000000000D+00
     .137000000000D+03 -.118125000000D+02  .540343936065D-08  .435844235576D+00
    -.661239027977D-06  .559029052965D-02  .647641718388D-05  .515371386337D+04
     .432000000000D+05 -.968575477600D-07 -.193964034946D+01  .279396772385D-07
     .933189646683D+00  .240562500000D+03 -.193268828041D+01 -.860857286733D-08
    -.356800576462D-09  .100000000000D+01  .160400000000D+04  .000000000000D+00
     .485000000000D+01  .000000000000D+00 -.176951289177D-07  .137000000000D+03
     .360060000000D+05  .400000000000D+01
23 10 10  3 12  0  0.0  .350800808519D-03 -.193267624127D-11  .000000000000D+00
     .620000000000D+02  .294375000000D+02  .414588697855D-08 -.131169815676D+01
     .122748315334D-05  .700722250622D-02  .115577131510D-04  .515364426041D+04
     .432000000000D+05 -.745058059692D-08 -.907378392615D+00 -.102445483208D-06
     .966767456762D+00  .157875000000D+03  .310970276132D+01 -.789211445253D-08
    -.139291516336D-10  .100000000000D+01  .160400000000D+04  .000000000000D+00
     .240000000000D+01  .000000000000D+00 -.200234353542D-07  .620000000000D+02
     .360060000000D+05  .400000000000D+01
24 10 10  3 12  0  0.0  .326954293996D-03  .329691829393D-11  .000000000000D+00
     .110000000000D+02  .371875000000D+02  .488948938114D-08 -.119373502891D+01
     .200048089027D-05  .574679940473D-02  .781379640102D-05  .515476075363D+04
     .432000000000D+05 -.121071934700D-06 -.295954637148D+01 -.800937414169D-07
     .949244271446D+00  .224125000000D+03 -.371946308691D+00 -.822355682986D-08
     .410017078857D-09  .100000000000D+01  .160400000000D+04  .000000000000D+00
     .240000000000D+01  .000000000000D+00 -.139698386192D-08  .110000000000D+02
     .360060000000D+05  .400000000000D+01
25 10 10  3 12  0  0.0 -.438573770225D-04 -.181898940355D-11  .000000000000D+00
     .280000000000D+02 -.718750000000D+02  .489377527395D-08  .577466141280D+00
    -.375509262085D-05  .728792278096D-03  .454485416412D-05  .515376477623D+04
     .432000000000D+05 -.912696123123D-07  .116188988145D+01  .596046447754D-07
     .960709177988D+00  .289937500000D+03  .194000341647D+01 -.843606568171D-08
    -.181793286706D-09  .100000000000D+01  .160400000000D+04  .100000000000D+01
     .240000000000D+01  .000000000000D+00  .465661287308D-08  .280000000000D+02
     .360060000000D+05  .400000000000D+01
26 10 10  3 12  0  0.0 -.225286930799D-04 -.738964445191D-11  .000000000000D+00
     .580000000000D+02  .377500000000D+02  .365265214762D-08 -.158996093984D+01
     .213831663132D-05  .198148650816D-01  .103153288364D-04  .515364603996D+04
     .432000000000D+05  .435858964920D-06 -.847430590314D+00  .141561031342D-06
     .989560503098D+00  .190562500000D+03  .111181725309D+01 -.749959810265D-08
    -.192865176466D-10  .100000000000D+01  .160400000000D+04  .000000000000D+00
     .240000000000D+01  .000000000000D+00 -.605359673500D-08  .580000000000D+02
     .360060000000D+05  .400000000000D+01
27 10 10  3 12  0  0.0  .194715335965D-03  .352429196937D-11  .000000000000D+00
     .420000000000D+02  .646250000000D+02  .441196949052D-08 -.456166025603D+00
     .333599746227D-05  .216227994533D-01  .618025660515D-05  .515357156181D+04
     .432000000000D+05 -.283122062683D-06  .793732243848D-01  .353902578354D-07
     .979715566206D+00  .277593750000D+03 -.136600687508D+01 -.848571060676D-08
     .460019161645D-09  .100000000000D+01  .160400000000D+04  .000000000000D+00
     .240000000000D+01  .000000000000D+00 -.419095158577D-08  .420000000000D+02
     .360060000000D+05  .400000000000D+01
28 10 10  3 12  0  0.0 -.117253512144D-05  .147792889038D-11  .000000000000D+00
     .380000000000D+02 -.686875000000D+02  .474805491840D-08  .580853631960D+00
    -.349245965481D-05  .162244081730D-01  .456720590591D-05  .515368013573D+04
     .432000000000D+05 -.162050127983D-06  .121410263021D+01  .242143869400D-07
     .971376830750D+00  .302343750000D+03 -.194438401640D+01 -.862678791177D-08
    -.318584698903D-09  .100000000000D+01  .160400000000D+04  .000000000000D+00
     .240000000000D+01  .000000000000D+00 -.107102096081D-07  .380000000000D+02
     .360060000000D+05  .400000000000D+01
